[{"OBJECT_NAME":"STARLINK-36925","OBJECT_ID":"2026-041C","EPOCH":"2026-03-09T22:00:01.999584","MEAN_MOTION":15.91096472,"ECCENTRICITY":4.706e-5,"INCLINATION":53.1592,"RA_OF_ASC_NODE":61.1148,"ARG_OF_PERICENTER":98.4581,"MEAN_ANOMALY":222.3095,"EPHEMERIS_TYPE":0,"CLASSIFICATION_TYPE":"U","NORAD_CAT_ID":68042,"ELEMENT_SET_NO":999,"REV_AT_EPOCH":241,"BSTAR":-0.0049633214,"MEAN_MOTION_DOT":-0.01602379,"MEAN_MOTION_DDOT":0.00071586754},{"OBJECT_NAME":"BREEZE-M DEB [TANK]","OBJECT_ID":"2009-065C","EPOCH":"2026-03-09T16:16:29.879904","MEAN_MOTION":5.25495845,"ECCENTRICITY":0.52199519,"INCLINATION":49.3487,"RA_OF_ASC_NODE":128.2527,"ARG_OF_PERICENTER":242.5663,"MEAN_ANOMALY":55.6395,"EPHEMERIS_TYPE":0,"CLASSIFICATION_TYPE":"U","NORAD_CAT_ID":36103,"ELEMENT_SET_NO":999,"REV_AT_EPOCH":30285,"BSTAR":0.0010536096,"MEAN_MOTION_DOT":5.86e-5,"MEAN_MOTION_DDOT":0}]
